OPTICUBE 04             
1 41851U 16067D   23222.36985214  .00003419  00000+0  27866-3 0  9996
2 41851  98.0582  10.5231 0015175  19.8857 340.2953 15.00111380368454
AEROCUBE 8D             
1 41852U 16067E   23222.80320488  .00004844  00000+0  36864-3 0  9993
2 41852  98.0749  12.2347 0007886  76.5541 283.6561 15.02585945368568
AEROCUBE 8C             
1 41853U 16067F   23221.86721701  .00005216  00000+0  39769-3 0  9993
2 41853  98.0553  10.6583 0009720  23.1753 336.9907 15.02467976368411
PROMETHEUS 2-1          
1 41854U 16067G   23221.38019336  .00010439  00000+0  70654-3 0  9996
2 41854  98.0735  13.6210 0016830  39.9038 320.3421 15.06602975368495
PROMETHEUS 2-3          
1 41855U 16067H   23221.83888588  .00010737  00000+0  72716-3 0  9992
2 41855  98.0661  13.9058 0014541  48.0368 312.2094 15.06597653368561
INS-1B                  
1 41954U 17008G   23222.60132461  .00125358  00000+0  11307-2 0  9990
2 41954  97.1927 284.1494 0005184 167.6231 192.5159 15.67750848361379
DIDO-2                  
1 42000U 17008BE  23222.39576800  .00023299  00000+0  54646-3 0  9993
2 42000  97.1972 277.6755 0005906 181.6995 178.4234 15.42047618360287
PEASSS                  
1 42015U 17008BV  23222.65638102  .00069318  00000+0  90494-3 0  9995
2 42015  97.2011 286.5243 0004717 165.4060 194.7333 15.58442335361320
UCLSAT                  
1 42765U 17036A   23221.87501402  .00077007  00000+0  10071-2 0  9999
2 42765  97.1366 260.6935 0004559 212.7558 147.3416 15.58366698341632
AALTO-1                 
1 42775U 17036L   23222.38421783  .00020326  00000+0  55165-3 0  9996
2 42775  97.1496 250.9264 0007206 263.3174  96.7251 15.37604926340844
URSA MAIOR              
1 42776U 17036M   23222.63253612  .00022901  00000+0  57586-3 0  9999
2 42776  97.1504 252.6824 0006881 254.8320 105.2166 15.39933288340964
DIAMOND RED             
1 42783U 17036U   23222.03906171  .00031557  00000+0  70157-3 0  9992
2 42783  97.1476 255.6625 0005155 256.4742 103.5932 15.43595084341091
PEGASUS                 
1 42784U 17036V   23222.32534492  .00058311  00000+0  95565-3 0  9995
2 42784  97.1430 259.2479 0004841 224.5202 135.5663 15.52268420341364
DIAMOND GREEN           
1 42785U 17036W   23222.32216276  .00036351  00000+0  76993-3 0  9997
2 42785  97.1467 256.2340 0004822 251.0241 109.0486 15.45004433341145
DIAMOND BLUE            
1 42786U 17036X   23222.36475884  .00033153  00000+0  71705-3 0  9997
2 42786  97.1476 256.1804 0005095 252.0034 108.0660 15.44403225341148
SUCHAI                  
1 42788U 17036Z   23221.64545341  .00143155  00000+0  12451-2 0  9991
2 42788  97.1369 263.3405 0005522 207.8651 152.2316 15.68590337341647
SKCUBE                  
1 42789U 17036AA  23222.67049644  .00074903  00000+0  94565-3 0  9992
2 42789  97.1384 262.2087 0005423 213.5862 146.5052 15.59307935341583
ROBUSTA 1B              
1 42792U 17036AD  23222.34833923  .00126459  00000+0  12645-2 0  9993
2 42792  97.1361 263.4862 0005093 201.5900 158.5146 15.65170297341650
CICERO 6                
1 42793U 17036AE  23222.33454699  .00025667  00000+0  61361-3 0  9991
2 42793  97.1460 255.9262 0004537 255.8073 104.2671 15.41460278341236
CORVUS BC2              
1 42846U 17042X   23222.01282795  .00002695  00000+0  25104-3 0  9999
2 42846  97.3843  60.0473 0009702  39.4180 320.7746 14.95011475330768
CORVUS BC1              
1 42847U 17042Y   23222.80382426  .00002151  00000+0  20083-3 0  9997
2 42847  97.3841  61.1536 0009395  35.8926 324.2925 14.95111471330894
MIRATA                  
1 43015U 17073C   23221.95110172  .00011086  00000+0  68374-3 0  9993
2 43015  97.6259 108.1840 0205768 235.0050 123.1704 14.94119736309519
MAKERSAT 0              
1 43016U 17073D   23222.61692263  .00006824  00000+0  45601-3 0  9996
2 43016  97.6244 106.5676 0221168 243.5055 114.3330 14.89435767309408
CORVUS BC3              
1 43118U 18004H   23222.15504693  .00026505  00000+0  64564-3 0  9999
2 43118  97.3220 296.5078 0005274 312.6871  47.3931 15.40884155310344
CICERO 7                
1 43143U 18004AJ  23222.03716798  .00084276  00000+0  95215-3 0  9991
2 43143  97.3296 310.3262 0002785 270.4079  89.6860 15.62196419311142
GOMX-4B                 
1 43196U 18015E   23222.69062643  .00015738  00000+0  41852-3 0  9991
2 43196  97.5841  15.2885 0013710  15.6843 344.4823 15.38230514307322
GOMX-4A                 
1 43197U 18015F   23222.76863203  .00019517  00000+0  46037-3 0  9990
2 43197  97.5834  17.7583 0012785   9.2192 350.9287 15.41853250307502
AEROCUBE 12B            
1 43557U 18046D   23222.11902903  .01337053  12504-2  11722-2 0  9990
2 43557  51.6116 263.6698 0009715  10.2235 349.8976 16.12591140284270
CUBEBEL-1 (BSUSAT-1)    
1 43666U 18083E   23222.78820186  .00035651  00000+0  83905-3 0  9993
2 43666  97.3772 254.8387 0006168 276.7402  83.3143 15.41859759265603
CICERO 10               
1 43690U 18088A   23222.44992306  .00021133  00000+0  55295-3 0  9993
2 43690  85.0292  35.7916 0011085  38.9513 321.2534 15.38541418263815
PROXIMA I               
1 43694U 18088E   23221.78534769  .00028294  00000+0  66477-3 0  9997
2 43694  85.0227  31.6774 0011716   2.1373 357.9928 15.41797845264020
PROXIMA II              
1 43696U 18088G   23222.51802476  .00025509  00000+0  60173-3 0  9997
2 43696  85.0228  31.2353 0011717 359.1861   0.9370 15.41682358264130
SIRION PATHFINDER-2     
1 43759U 18099B   23222.39465550  .00003863  00000+0  32206-3 0  9998
2 43759  97.5715 282.5343 0010686 299.1178  60.8975 14.99142963255745
CORVUS BC4              
1 43767U 18099K   23222.11148115  .00004455  00000+0  37598-3 0  9999
2 43767  97.5633 280.1291 0008650 306.0136  54.0284 14.98598857255608
MOVE-II                 
1 43780U 18099Y   23222.64917115  .00010249  00000+0  72840-3 0  9993
2 43780  97.5687 285.5512 0007493 335.1846  24.9019 15.04852840255922
SPACEBEE-7              
1 43816U 18099BL  23222.61054606  .00007239  00000+0  53645-3 0  9994
2 43816  97.5923 286.4043 0010681 271.9884  88.0118 15.03366461255486
SPACEBEE-5              
1 43817U 18099BM  23222.43261285  .00043134  00000+0  19171-2 0  9997
2 43817  97.5880 294.7616 0003670 233.0544 127.0356 15.21377655255934
SPACEBEE-6              
1 43818U 18099BN  23221.43214925  .00012115  00000+0  80296-3 0  9998
2 43818  97.5862 287.5359 0009958 291.7710  68.2458 15.07394517255580
SHIELDS 1               
1 43850U 18104B   23222.20984517  .00008364  00000+0  29111-3 0  9998
2 43850  85.0278 133.3426 0014257 146.2721 213.9435 15.29418632258368
STF-1                   
1 43852U 18104D   23222.49468640  .00043010  00000+0  84601-3 0  9997
2 43852  85.0236 129.9976 0012064 133.9361 226.2892 15.47007435258787
ZACUBE-2                
1 43907U 18111AH  23222.84220953  .00031284  00000+0  69260-3 0  9992
2 43907  97.1299 101.2436 0014177  26.1897 334.0065 15.43627861257572
LUME 1                  
1 43908U 18111AJ  23222.75266350  .00041304  00000+0  71919-3 0  9992
2 43908  97.1305 105.3375 0011121  15.3762 344.7826 15.50584899257838
MOVE-IIB                
1 44398U 19038N   23221.71179006  .00066145  00000+0  13024-2 0  9993
2 44398  97.6611 207.3207 0016360 102.9538 257.3539 15.46866519226921
SONATE                  
1 44400U 19038Q   23221.68783863  .00011099  00000+0  48030-3 0  9999
2 44400  97.6873 200.4866 0022196 122.9670 237.3703 15.22387198226378
LUCKY-7                 
1 44406U 19038W   23221.86192374  .00014935  00000+0  58646-3 0  9992
2 44406  97.6833 202.1674 0020849 116.6899 243.6476 15.25609550226506
BEESAT 9                
1 44412U 19038AC  23222.18838175  .00028145  00000+0  88902-3 0  9997
2 44412  97.6758 204.7127 0017708 112.9339 247.3773 15.32637814226422
JAISAT-1                
1 44419U 19038F   23222.71525911  .00026618  00000+0  83335-3 0  9992
2 44419  97.6759 206.3645 0017025 107.9660 252.3439 15.32944929226889
DUCHIFAT-3              
1 44854U 19089C   23222.81372425  .00008522  00000+0  55997-3 0  9999
2 44854  36.9605 124.5944 0007245  30.6026 329.5140 15.07164278201075
EYESAT-NANO             
1 44877U 19092E   23222.33257290  .00072895  00000+0  13504-2 0  9998
2 44877  97.4566  54.2183 0006729 284.2439  75.8064 15.48721766202469
M2 PATHFINDER           
1 45727U 20037E   23222.43918614  .00003734  00000+0  35163-3 0  9991
2 45727  97.7610  36.5042 0013603  84.9517 275.3256 14.94383615169341
NETSAT-4                
1 46504U 20068U   23222.78978833  .00006675  00000+0  43370-3 0  9992
2 46504  97.7642 169.1499 0010471 355.2784   4.8343 15.08321752157135
NETSAT-3                
1 46505U 20068V   23222.43179812  .00005973  00000+0  39092-3 0  9991
2 46505  97.7617 168.5817 0009920   6.6016 353.5341 15.08102681157081
NETSAT-1                
1 46506U 20068W   23222.42077222  .00004962  00000+0  32905-3 0  9996
2 46506  97.7625 168.4287 0008707  16.7269 343.4244 15.07709770157075
NETSAT-2                
1 46507U 20068X   23222.59125917  .00006858  00000+0  44660-3 0  9997
2 46507  97.7627 168.6793 0008323  24.5645 335.5978 15.08243720157054
SAI-1 NANOCONNECT-2     
1 47701U 21015C   23222.68552628  .00070210  00000+0  10270-2 0  9992
2 47701  97.3802 307.4572 0004919  30.4578 329.6961 15.55364577136608
WILDTRACKCUBE-SIMBA     
1 47941U 21022K   23222.80615064  .00007600  00000+0  43144-3 0  9994
2 47941  97.4905 118.8875 0019933 143.3223 216.9377 15.13048428131266
BEESAT-6                
1 47957U 21022AB  23222.67960502  .00021663  00000+0  96514-3 0  9990
2 47957  97.4875 121.1728 0017645 135.0260 225.2408 15.21314235131214
SMOG-1                  
1 47964U 21022AJ  23222.48506868  .00021831  00000+0  92144-3 0  9990
2 47964  97.4916 123.1866 0016406 122.5359 237.7465 15.23171555130338
BCCSAT-1                
1 48041U 21022AK  23222.66595567  .00018151  00000+0  82641-3 0  9993
2 48041  97.4915 122.0875 0014164 122.5187 237.7419 15.20656759130251
